start=new Date('2023-01-17T00:00:00.000Z').valueOf();
sats=[{"EPHEMERIS_TYPE":"0","REF_FRAME":"TEME","CENTER_NAME":"EARTH","MEAN_MOTION":"15.01246277","NORAD_CAT_ID":"53197","SITE":"AFWTR","RCS_SIZE":"LARGE","SEMIMAJOR_AXIS":"6941.189","APOAPSIS":"563.820","FILE":"3750204","GP_ID":"223215087","COUNTRY_CODE":"US","LAUNCH_DATE":"2022-07-22","ARG_OF_PERICENTER":"97.2598","TLE_LINE2":"2 53197  97.6584  80.0960 0001103  97.2598 262.8752 15.01246277 27482","MEAN_MOTION_DDOT":"0.0000000000000","INCLINATION":"97.6584","MEAN_ELEMENT_THEORY":"SGP4","RA_OF_ASC_NODE":"80.0960","PERIOD":"95.920","BSTAR":"-0.00048040000000","TIME_SYSTEM":"UTC","DECAY_DATE":null,"OBJECT_TYPE":"PAYLOAD","ELEMENT_SET_NO":"999","TLE_LINE1":"1 53197U 22084J   23016.88095369 -.00006222  00000-0 -48040-3 0  9994","MEAN_MOTION_DOT":"-0.00006222","EPOCH":"2023-01-16T21:08:34.398816","MEAN_ANOMALY":"262.8752","OBJECT_NAME":"STARLINK-4403","OBJECT_ID":"2022-084J","PERIAPSIS":"562.289","ECCENTRICITY":"0.00011030","REV_AT_EPOCH":"2748","CLASSIFICATION_TYPE":"U"},{"TLE_LINE1":"1 53198U 22084K   23016.88465964 -.00005986  00000-0 -46206-3 0  9995","MEAN_MOTION_DOT":"-0.00005986","ELEMENT_SET_NO":"999","TIME_SYSTEM":"UTC","OBJECT_TYPE":"PAYLOAD","DECAY_DATE":null,"BSTAR":"-0.00046206000000","CLASSIFICATION_TYPE":"U","ECCENTRICITY":"0.00013210","REV_AT_EPOCH":"2748","PERIAPSIS":"562.146","OBJECT_ID":"2022-084K","OBJECT_NAME":"STARLINK-4385","MEAN_ANOMALY":"244.1950","EPOCH":"2023-01-16T21:13:54.592896","SITE":"AFWTR","RCS_SIZE":"LARGE","MEAN_MOTION":"15.01243574","NORAD_CAT_ID":"53198","CENTER_NAME":"EARTH","REF_FRAME":"TEME","EPHEMERIS_TYPE":"0","RA_OF_ASC_NODE":"80.1008","MEAN_ELEMENT_THEORY":"SGP4","PERIOD":"95.920","TLE_LINE2":"2 53198  97.6590  80.1008 0001321 115.9410 244.1950 15.01243574 27487","MEAN_MOTION_DDOT":"0.0000000000000","INCLINATION":"97.6590","ARG_OF_PERICENTER":"115.9410","COUNTRY_CODE":"US","FILE":"3750204","GP_ID":"223215390","LAUNCH_DATE":"2022-07-22","APOAPSIS":"563.979","SEMIMAJOR_AXIS":"6941.197"},{"BSTAR":"-0.00032314000000","DECAY_DATE":null,"OBJECT_TYPE":"PAYLOAD","TIME_SYSTEM":"UTC","ELEMENT_SET_NO":"999","MEAN_MOTION_DOT":"-0.00004206","TLE_LINE1":"1 53199U 22084L   23016.87910382 -.00004206  00000-0 -32314-3 0  9993","MEAN_ANOMALY":"256.0476","EPOCH":"2023-01-16T21:05:54.570048","OBJECT_NAME":"STARLINK-4395","OBJECT_ID":"2022-084L","PERIAPSIS":"562.287","REV_AT_EPOCH":"2748","ECCENTRICITY":"0.00011040","CLASSIFICATION_TYPE":"U","EPHEMERIS_TYPE":"0","REF_FRAME":"TEME","CENTER_NAME":"EARTH","NORAD_CAT_ID":"53199","MEAN_MOTION":"15.01246517","RCS_SIZE":"LARGE","SITE":"AFWTR","SEMIMAJOR_AXIS":"6941.188","APOAPSIS":"563.820","LAUNCH_DATE":"2022-07-22","GP_ID":"223215090","FILE":"3750205","COUNTRY_CODE":"US","MEAN_MOTION_DDOT":"0.0000000000000","TLE_LINE2":"2 53199  97.6590  80.0931 0001104 104.0871 256.0476 15.01246517 27486","ARG_OF_PERICENTER":"104.0871","INCLINATION":"97.6590","PERIOD":"95.920","MEAN_ELEMENT_THEORY":"SGP4","RA_OF_ASC_NODE":"80.0931"},{"EPHEMERIS_TYPE":"0","REF_FRAME":"TEME","CENTER_NAME":"EARTH","NORAD_CAT_ID":"53200","MEAN_MOTION":"15.01236609","RCS_SIZE":"LARGE","SITE":"AFWTR","SEMIMAJOR_AXIS":"6941.219","APOAPSIS":"563.974","LAUNCH_DATE":"2022-07-22","FILE":"3750206","GP_ID":"223215119","COUNTRY_CODE":"US","TLE_LINE2":"2 53200  97.6582  80.0990 0001282 116.4659 243.6696 15.01236609 27480","MEAN_MOTION_DDOT":"0.0000000000000","ARG_OF_PERICENTER":"116.4659","INCLINATION":"97.6582","PERIOD":"95.921","MEAN_ELEMENT_THEORY":"SGP4","RA_OF_ASC_NODE":"80.0990","BSTAR":"-0.00010335000000","OBJECT_TYPE":"PAYLOAD","DECAY_DATE":null,"TIME_SYSTEM":"UTC","ELEMENT_SET_NO":"999","TLE_LINE1":"1 53200U 22084M   23016.88280696 -.00001385  00000-0 -10335-3 0  9999","MEAN_MOTION_DOT":"-0.00001385","MEAN_ANOMALY":"243.6696","EPOCH":"2023-01-16T21:11:14.521344","OBJECT_NAME":"STARLINK-4417","OBJECT_ID":"2022-084M","PERIAPSIS":"562.194","ECCENTRICITY":"0.00012820","REV_AT_EPOCH":"2748","CLASSIFICATION_TYPE":"U"},{"CENTER_NAME":"EARTH","REF_FRAME":"TEME","EPHEMERIS_TYPE":"0","RCS_SIZE":"LARGE","SITE":"AFWTR","NORAD_CAT_ID":"53201","MEAN_MOTION":"15.01242060","LAUNCH_DATE":"2022-07-22","COUNTRY_CODE":"US","GP_ID":"223215427","FILE":"3750206","APOAPSIS":"563.852","SEMIMAJOR_AXIS":"6941.202","PERIOD":"95.921","RA_OF_ASC_NODE":"79.9581","MEAN_ELEMENT_THEORY":"SGP4","MEAN_MOTION_DDOT":"0.0000000000000","TLE_LINE2":"2 53201  97.6590  79.9581 0001130 117.9904 242.1435 15.01242060 27465","INCLINATION":"97.6590","ARG_OF_PERICENTER":"117.9904","DECAY_DATE":null,"OBJECT_TYPE":"PAYLOAD","TIME_SYSTEM":"UTC","BSTAR":"-0.00043924000000","TLE_LINE1":"1 53201U 22084N   23016.74209694 -.00005693  00000-0 -43924-3 0  9990","MEAN_MOTION_DOT":"-0.00005693","ELEMENT_SET_NO":"999","PERIAPSIS":"562.283","OBJECT_ID":"2022-084N","OBJECT_NAME":"STARLINK-4405","EPOCH":"2023-01-16T17:48:37.175616","MEAN_ANOMALY":"242.1435","CLASSIFICATION_TYPE":"U","ECCENTRICITY":"0.00011300","REV_AT_EPOCH":"2746"},{"MEAN_MOTION_DOT":"-0.00002473","TLE_LINE1":"1 53202U 22084P   23016.89730205 -.00002473  00000-0 -19210-3 0  9998","ELEMENT_SET_NO":"999","BSTAR":"-0.00019210000000","DECAY_DATE":null,"OBJECT_TYPE":"PAYLOAD","TIME_SYSTEM":"UTC","REV_AT_EPOCH":"2712","ECCENTRICITY":"0.00023110","CLASSIFICATION_TYPE":"U","OBJECT_NAME":"STARLINK-4411","MEAN_ANOMALY":"255.8202","EPOCH":"2023-01-16T21:32:06.897120","PERIAPSIS":"563.948","OBJECT_ID":"2022-084P","NORAD_CAT_ID":"53202","MEAN_MOTION":"15.00436187","RCS_SIZE":"LARGE","SITE":"AFWTR","EPHEMERIS_TYPE":"0","CENTER_NAME":"EARTH","REF_FRAME":"TEME","ARG_OF_PERICENTER":"104.3278","TLE_LINE2":"2 53202  97.6587  80.3794 0002311 104.3278 255.8202 15.00436187 27120","MEAN_MOTION_DDOT":"0.0000000000000","INCLINATION":"97.6587","PERIOD":"95.972","RA_OF_ASC_NODE":"80.3794","MEAN_ELEMENT_THEORY":"SGP4","APOAPSIS":"567.157","SEMIMAJOR_AXIS":"6943.687","LAUNCH_DATE":"2022-07-22","COUNTRY_CODE":"US","GP_ID":"223255156","FILE":"3750956"},{"BSTAR":"-0.00038092000000","OBJECT_TYPE":"PAYLOAD","DECAY_DATE":null,"TIME_SYSTEM":"UTC","MEAN_MOTION_DOT":"-0.00004946","TLE_LINE1":"1 53203U 22084Q   23016.73839281 -.00004946  00000-0 -38092-3 0  9992","ELEMENT_SET_NO":"999","OBJECT_NAME":"STARLINK-4409","MEAN_ANOMALY":"250.5697","EPOCH":"2023-01-16T17:43:17.138784","PERIAPSIS":"562.416","OBJECT_ID":"2022-084Q","REV_AT_EPOCH":"2746","ECCENTRICITY":"0.00009170","CLASSIFICATION_TYPE":"U","EPHEMERIS_TYPE":"0","CENTER_NAME":"EARTH","REF_FRAME":"TEME","NORAD_CAT_ID":"53203","MEAN_MOTION":"15.01246920","RCS_SIZE":"LARGE","SITE":"AFWTR","APOAPSIS":"563.689","SEMIMAJOR_AXIS":"6941.187","LAUNCH_DATE":"2022-07-22","COUNTRY_CODE":"US","FILE":"3750207","GP_ID":"223215131","MEAN_MOTION_DDOT":"0.0000000000000","TLE_LINE2":"2 53203  97.6589  79.9537 0000917 109.5626 250.5697 15.01246920 27468","INCLINATION":"97.6589","ARG_OF_PERICENTER":"109.5626","PERIOD":"95.920","RA_OF_ASC_NODE":"79.9537","MEAN_ELEMENT_THEORY":"SGP4"},{"CLASSIFICATION_TYPE":"U","ECCENTRICITY":"0.00009980","REV_AT_EPOCH":"2776","OBJECT_ID":"2022-084R","PERIAPSIS":"562.369","EPOCH":"2023-01-16T21:03:14.451840","MEAN_ANOMALY":"246.9704","OBJECT_NAME":"STARLINK-4410","ELEMENT_SET_NO":"999","TLE_LINE1":"1 53204U 22084R   23016.87725060 -.00006324  00000-0 -48840-3 0  9991","MEAN_MOTION_DOT":"-0.00006324","OBJECT_TYPE":"PAYLOAD","DECAY_DATE":null,"TIME_SYSTEM":"UTC","BSTAR":"-0.00048840000000","PERIOD":"95.920","MEAN_ELEMENT_THEORY":"SGP4","RA_OF_ASC_NODE":"80.0908","ARG_OF_PERICENTER":"113.1626","TLE_LINE2":"2 53204  97.6594  80.0908 0000998 113.1626 246.9704 15.01243903 27769","MEAN_MOTION_DDOT":"0.0000000000000","INCLINATION":"97.6594","LAUNCH_DATE":"2022-07-22","GP_ID":"223254677","FILE":"3750956","COUNTRY_CODE":"US","SEMIMAJOR_AXIS":"6941.196","APOAPSIS":"563.754","RCS_SIZE":"LARGE","SITE":"AFWTR","NORAD_CAT_ID":"53204","MEAN_MOTION":"15.01243903","REF_FRAME":"TEME","CENTER_NAME":"EARTH","EPHEMERIS_TYPE":"0"},{"BSTAR":"-0.00058497000000","OBJECT_TYPE":"PAYLOAD","DECAY_DATE":null,"TIME_SYSTEM":"UTC","ELEMENT_SET_NO":"999","TLE_LINE1":"1 53205U 22084S   23016.73468910 -.00007561  00000-0 -58497-3 0  9998","MEAN_MOTION_DOT":"-0.00007561","MEAN_ANOMALY":"275.0973","EPOCH":"2023-01-16T17:37:57.138240","OBJECT_NAME":"STARLINK-4397","PERIAPSIS":"562.383","OBJECT_ID":"2022-084S","REV_AT_EPOCH":"2708","ECCENTRICITY":"0.00009760","CLASSIFICATION_TYPE":"U","EPHEMERIS_TYPE":"0","REF_FRAME":"TEME","CENTER_NAME":"EARTH","NORAD_CAT_ID":"53205","MEAN_MOTION":"15.01244130","RCS_SIZE":"LARGE","SITE":"AFWTR","SEMIMAJOR_AXIS":"6941.196","APOAPSIS":"563.738","LAUNCH_DATE":"2022-07-22","GP_ID":"223254915","FILE":"3750956","COUNTRY_CODE":"US","TLE_LINE2":"2 53205  97.6600  79.9491 0000976  85.0363 275.0973 15.01244130 27082","MEAN_MOTION_DDOT":"0.0000000000000","INCLINATION":"97.6600","ARG_OF_PERICENTER":"85.0363","PERIOD":"95.920","MEAN_ELEMENT_THEORY":"SGP4","RA_OF_ASC_NODE":"79.9491"},{"TIME_SYSTEM":"UTC","DECAY_DATE":null,"OBJECT_TYPE":"PAYLOAD","BSTAR":"-0.00024438000000","ELEMENT_SET_NO":"999","TLE_LINE1":"1 53206U 22084T   23016.73862710 -.00003195  00000-0 -24438-3 0  9992","MEAN_MOTION_DOT":"-0.00003195","OBJECT_ID":"2022-084T","PERIAPSIS":"561.909","MEAN_ANOMALY":"261.2302","EPOCH":"2023-01-16T17:43:37.381440","OBJECT_NAME":"STARLINK-4408","CLASSIFICATION_TYPE":"U","ECCENTRICITY":"0.00016730","REV_AT_EPOCH":"2708","REF_FRAME":"TEME","CENTER_NAME":"EARTH","EPHEMERIS_TYPE":"0","SITE":"AFWTR","RCS_SIZE":"LARGE","MEAN_MOTION":"15.01240917","NORAD_CAT_ID":"53206","GP_ID":"223255635","FILE":"3750956","COUNTRY_CODE":"US","LAUNCH_DATE":"2022-07-22","SEMIMAJOR_AXIS":"6941.206","APOAPSIS":"564.232","MEAN_ELEMENT_THEORY":"SGP4","RA_OF_ASC_NODE":"79.9524","PERIOD":"95.921","TLE_LINE2":"2 53206  97.6587  79.9524 0001673  98.9111 261.2302 15.01240917 27085","INCLINATION":"97.6587","MEAN_MOTION_DDOT":"0.0000000000000","ARG_OF_PERICENTER":"98.9111"}];
